NORAD_CAT_ID,OBJECT_NAME,OBJECT_TYPE,EPOCH,MEAN_MOTION,ECCENTRICITY,INCLINATION,RA_OF_ASC_NODE,ARG_OF_PERICENTER,MEAN_ANOMALY,BSTAR,MEAN_MOTION_DOT,MEAN_MOTION_DDOT,TLE_LINE0,TLE_LINE1,TLE_LINE2,SEMIMAJOR_AXIS,PERIOD,APOGEE,PERIGEE,DECAYED
49135.0,STARLINK-3073,PAYLOAD,2024-04-13 12:24:19,14.98331139,0.0003017,70.0017,207.2145,272.8049,87.2764,2.3126e-05,1.83e-06,0.0,0 STARLINK-3073,1 49135U 21082F   24104.51689025  .00000183  00000-0  23126-4 0  9992,2 49135  70.0017 207.2145 0003017 272.8049  87.2764 14.98331139142848,6950.189,96.107,574.151,569.957,0.0
49135.0,STARLINK-3073,PAYLOAD,2024-04-13 14:00:27,14.98331286,0.0003017,70.0016,207.0461,269.2114,90.8699,4.3832e-05,4.3e-06,0.0,0 STARLINK-3073,1 49135U 21082F   24104.58364910  .00000430  00000-0  43832-4 0  9993,2 49135  70.0016 207.0461 0003017 269.2114  90.8699 14.98331286142850,6950.189,96.107,574.151,569.957,0.0
49135.0,STARLINK-3073,PAYLOAD,2024-04-13 17:12:43,14.98333686,0.000288,70.0018,206.7097,267.6896,92.3934,6.993e-05,7.42e-06,0.0,0 STARLINK-3073,1 49135U 21082F   24104.71716682  .00000742  00000-0  69930-4 0  9998,2 49135  70.0018 206.7097 0002880 267.6896  92.3934 14.98333686142876,6950.181,96.107,574.048,570.045,0.0
49135.0,STARLINK-3073,PAYLOAD,2024-04-14 12:26:20,14.98292538,0.0003226,70.0022,204.6909,266.284,93.795,0.00072843,8.601e-05,0.0,0 STARLINK-3073,1 49135U 21082F   24105.51829792  .00008601  00000-0  72843-3 0  9992,2 49135  70.0022 204.6909 0003226 266.2840  93.7950 14.98292538142995,6950.309,96.109,574.416,569.932,0.0
49135.0,STARLINK-3073,PAYLOAD,2024-04-14 15:38:36,14.98331337,0.0002929,70.0022,204.3544,268.9603,91.122,6.7374e-05,7.11e-06,0.0,0 STARLINK-3073,1 49135U 21082F   24105.65180732  .00000711  00000-0  67374-4 0  9999,2 49135  70.0022 204.3544 0002929 268.9603  91.1220 14.98331337143019,6950.189,96.107,574.089,570.018,0.0
49135.0,STARLINK-3073,PAYLOAD,2024-04-15 14:04:29,14.98330721,0.0002968,70.0021,201.9987,264.8904,95.1916,-8.7305e-07,-1.03e-06,0.0,0 STARLINK-3073,1 49135U 21082F   24106.58644821 -.00000103  00000-0 -87305-6 0  9991,2 49135  70.0021 201.9987 0002968 264.8904  95.1916 14.98330721143151,6950.191,96.107,574.118,569.993,0.0
49135.0,STARLINK-3073,PAYLOAD,2024-04-16 06:05:49,14.98329273,0.00033,70.0019,200.3159,272.0748,88.0033,1.6048e-05,9.8e-07,0.0,0 STARLINK-3073,1 49135U 21082F   24107.25404744  .00000098  00000-0  16048-4 0  9999,2 49135  70.0019 200.3159 0003300 272.0748  88.0033 14.98329273143252,6950.195,96.107,574.354,569.767,0.0
49135.0,STARLINK-3073,PAYLOAD,2024-04-16 12:30:21,14.98340097,0.0003022,70.0007,199.6395,267.3673,92.714,9.9587e-05,1.096e-05,0.0,0 STARLINK-3073,1 49135U 21082F   24107.52107786  .00001096  00000-0  99587-4 0  9993,2 49135  70.0007 199.6395 0003022 267.3673  92.7140 14.98340097143298,6950.162,96.106,574.127,569.926,0.0
49135.0,STARLINK-3073,PAYLOAD,2024-04-16 14:06:29,14.98339156,0.0003106,70.0007,199.4716,269.2001,90.8802,8.4805e-05,9.19e-06,0.0,0 STARLINK-3073,1 49135U 21082F   24107.58783851  .00000919  00000-0  84805-4 0  9992,2 49135  70.0007 199.4716 0003106 269.2001  90.8802 14.98339156143302,6950.165,96.106,574.188,569.871,0.0
49135.0,STARLINK-3073,PAYLOAD,2024-04-16 15:42:36,14.98345042,0.0003078,70.0012,199.3041,271.0326,89.048,0.00014293,1.613e-05,0.0,0 STARLINK-3073,1 49135U 21082F   24107.65459295  .00001613  00000-0  14293-3 0  9997,2 49135  70.0012 199.3041 0003078 271.0326  89.0480 14.98345042143311,6950.146,96.106,574.151,569.872,0.0
49135.0,STARLINK-3073,PAYLOAD,2024-04-17 12:32:22,14.98324246,0.0003875,69.9992,197.1166,276.2144,83.8574,3.2092e-05,2.9e-06,0.0,0 STARLINK-3073,1 49135U 21082F   24108.52248589  .00000290  00000-0  32092-4 0  9994,2 49135  69.9992 197.1166 0003875 276.2144  83.8574 14.98324246143442,6950.211,96.107,574.769,569.382,0.0
49135.0,STARLINK-3073,PAYLOAD,2024-04-17 14:08:31,14.9831607,0.0003301,70.0008,196.9486,272.1787,87.8994,-0.00016876,-2.105e-05,0.0,0 STARLINK-3073,1 49135U 21082F   24108.58925664 -.00002105  00000-0 -16876-3 0  9996,2 49135  70.0008 196.9486 0003301 272.1787  87.8994 14.98316070143454,6950.236,96.108,574.395,569.807,0.0
49135.0,STARLINK-3073,PAYLOAD,2024-04-17 15:44:39,14.98317492,0.0003297,70.0009,196.7806,269.3543,90.7238,-0.00014998,-1.882e-05,0.0,0 STARLINK-3073,1 49135U 21082F   24108.65601546 -.00001882  00000-0 -14998-3 0  9998,2 49135  70.0009 196.7806 0003297 269.3543  90.7238 14.98317492143465,6950.232,96.108,574.388,569.805,0.0
49135.0,STARLINK-3073,PAYLOAD,2024-04-18 14:10:32,14.98328073,0.0002927,70.0015,194.4236,273.7367,86.3457,-8.8219e-05,-1.145e-05,0.0,0 STARLINK-3073,1 49135U 21082F   24109.59065355 -.00001145  00000-0 -88219-4 0  9994,2 49135  70.0015 194.4236 0002927 273.7367  86.3457 14.98328073143603,6950.199,96.107,574.098,570.03,0.0
49135.0,STARLINK-3073,PAYLOAD,2024-04-18 15:46:40,14.98330009,0.0002901,70.0017,194.2563,270.1758,89.9068,-6.5167e-05,-8.7e-06,0.0,0 STARLINK-3073,1 49135U 21082F   24109.65741156 -.00000870  00000-0 -65167-4 0  9992,2 49135  70.0017 194.2563 0002901 270.1758  89.9068 14.98330009143613,6950.193,96.107,574.074,570.042,0.0
49135.0,STARLINK-3073,PAYLOAD,2024-04-19 12:36:24,14.98341859,0.0002667,70.0021,192.0697,268.108,91.9773,1.8304e-05,1.26e-06,0.0,0 STARLINK-3073,1 49135U 21082F   24110.52528548  .00000126  00000-0  18304-4 0  9991,2 49135  70.0021 192.0697 0002667 268.1080  91.9773 14.98341859143741,6950.156,96.106,573.875,570.168,0.0
49135.0,STARLINK-3073,PAYLOAD,2024-04-19 14:12:36,14.98181046,0.000187,70.002,191.9,278.1722,81.9225,0.0031963,0.00038104,0.0,0 STARLINK-3073,1 49135U 21082F   24110.59209226  .00038104  00000-0  31963-2 0  9998,2 49135  70.0020 191.9000 0001870 278.1722  81.9225 14.98181046143757,6950.654,96.117,573.818,571.219,0.0
49135.0,STARLINK-3073,PAYLOAD,2024-04-19 15:48:39,14.98370687,0.0002549,70.0021,191.7321,259.8416,100.2455,-0.00028275,-3.468e-05,0.0,0 STARLINK-3073,1 49135U 21082F   24110.65878957 -.00003468  00000-0 -28275-3 0  9998,2 49135  70.0021 191.7321 0002549 259.8416 100.2455 14.98370687143764,6950.067,96.104,573.704,570.161,0.0
49135.0,STARLINK-3073,PAYLOAD,2024-04-20 12:38:24,14.9834893,0.0002636,70.0039,189.5456,272.0048,88.0809,0.00036669,4.287e-05,0.0,0 STARLINK-3073,1 49135U 21082F   24111.52667776  .00004287  00000-0  36669-3 0  9994,2 49135  70.0039 189.5456 0002636 272.0048  88.0809 14.98348930143898,6950.134,96.106,573.831,570.167,0.0
49135.0,STARLINK-3073,PAYLOAD,2024-04-20 14:14:34,14.98304936,0.0002626,70.0034,189.3761,246.1824,113.906,-0.0005177,-6.26e-05,0.0,0 STARLINK-3073,1 49135U 21082F   24111.59345832 -.00006260  00000-0 -51770-3 0  9992,2 49135  70.0034 189.3761 0002626 246.1824 113.9060 14.98304936143900,6950.27,96.109,573.961,570.31,0.0
49135.0,STARLINK-3073,PAYLOAD,2024-04-21 14:16:35,14.98318207,0.0002325,70.0045,186.8518,243.0121,117.0801,-0.00028912,-3.54e-05,0.0,0 STARLINK-3073,1 49135U 21082F   24112.59485744 -.00003540  00000-0 -28912-3 0  9990,2 49135  70.0045 186.8518 0002325 243.0121 117.0801 14.98318207144057,6950.229,96.108,573.71,570.478,0.0
49135.0,STARLINK-3073,PAYLOAD,2024-04-22 04:41:47,14.9833553,0.0002936,70.0029,185.3337,264.239,95.8435,0.00066391,7.839e-05,0.0,0 STARLINK-3073,1 49135U 21082F   24113.19569331  .00007839  00000-0  66391-3 0  9998,2 49135  70.0029 185.3337 0002936 264.2390  95.8435 14.98335530144147,6950.176,96.107,574.081,570.0,0.0
49135.0,STARLINK-3073,PAYLOAD,2024-04-22 11:06:19,14.98363248,0.0002799,70.0029,184.6619,260.1101,99.9742,0.0019461,0.00023224,0.0,0 STARLINK-3073,1 49135U 21082F   24113.46273069  .00023224  00000-0  19461-2 0  9999,2 49135  70.0029 184.6619 0002799 260.1101  99.9742 14.98363248144181,6950.09,96.105,573.9,570.01,0.0
49135.0,STARLINK-3073,PAYLOAD,2024-04-22 14:18:35,14.98378012,0.0002748,70.0031,184.3248,257.5209,102.5643,0.0022035,0.0002633,0.0,0 STARLINK-3073,1 49135U 21082F   24113.59624551  .00026330  00000-0  22035-2 0  9991,2 49135  70.0031 184.3248 0002748 257.5209 102.5643 14.98378012144201,6950.044,96.104,573.819,570.0,0.0
49135.0,STARLINK-3073,PAYLOAD,2024-04-23 12:44:28,14.98335474,0.000326,70.0024,181.9693,271.2507,88.8278,-7.9718e-05,-1.044e-05,0.0,0 STARLINK-3073,1 49135U 21082F   24114.53088603 -.00001044  00000-0 -79718-4 0  9997,2 49135  70.0024 181.9693 0003260 271.2507  88.8278 14.98335474144344,6950.176,96.107,574.307,569.775,0.0
49135.0,STARLINK-3073,PAYLOAD,2024-04-23 14:20:36,14.98333008,0.0003168,70.0025,181.8012,269.4449,90.6347,-6.4992e-05,-8.68e-06,0.0,0 STARLINK-3073,1 49135U 21082F   24114.59764647 -.00000868  00000-0 -64992-4 0  9993,2 49135  70.0025 181.8012 0003168 269.4449  90.6347 14.98333008144350,6950.184,96.107,574.25,569.847,0.0
49135.0,STARLINK-3073,PAYLOAD,2024-04-24 12:46:29,14.98341784,0.0002868,70.0022,179.4454,265.9196,94.1635,0.0001766,2.015e-05,0.0,0 STARLINK-3073,1 49135U 21082F   24115.53228352  .00002015  00000-0  17660-3 0  9999,2 49135  70.0022 179.4454 0002868 265.9196  94.1635 14.98341784144490,6950.156,96.106,574.015,570.028,0.0
49135.0,STARLINK-3073,PAYLOAD,2024-04-24 14:22:37,14.98344381,0.0002877,70.0024,179.2777,265.5517,94.5313,0.00025514,2.954e-05,0.0,0 STARLINK-3073,1 49135U 21082F   24115.59904216  .00002954  00000-0  25514-3 0  9994,2 49135  70.0024 179.2777 0002877 265.5517  94.5313 14.98344381144506,6950.148,96.106,574.013,570.014,0.0
49135.0,STARLINK-3073,PAYLOAD,2024-04-25 04:47:50,14.98330711,0.0002131,70.0041,177.7642,260.778,99.3138,0.00028491,3.308e-05,0.0,0 STARLINK-3073,1 49135U 21082F   24116.19988912  .00003308  00000-0  28491-3 0  9997,2 49135  70.0041 177.7642 0002131 260.7780  99.3138 14.98330711144590,6950.191,96.107,573.537,570.575,0.0
49135.0,STARLINK-3073,PAYLOAD,2024-04-25 14:24:38,14.98329923,0.0002802,70.002,176.7527,267.083,93.0008,0.00014346,1.619e-05,0.0,0 STARLINK-3073,1 49135U 21082F   24116.60044916  .00001619  00000-0  14346-3 0  9997,2 49135  70.0020 176.7527 0002802 267.0830  93.0008 14.98329923144656,6950.193,96.107,574.006,570.111,0.0
